{
  "type": "FeatureCollection",
  "generator": "overpass-turbo",
  "copyright": "The data included in this document is from www.openstreetmap.org. The data is made available under ODbL.",
  "timestamp": "2026-08-08T20:05:51Z",
  "features": [
    {
      "type": "Feature",
      "properties": {
        "@id": "relation/13048389",
        "description": "Incomplete!",
        "historic": "yes",
        "name": "Atlanta BeltLine",
        "route": "railway",
        "type": "route"
      },
      "geometry": {
        "type": "MultiLineString",
        "coordinates": [
          [
            [
              -84.4243308,
              33.7658696
            ],
            [
              -84.4244287,
              33.7658242
            ],
            [
              -84.424801,
              33.765652
            ],
            [
              -84.4249158,
              33.7656045
            ],
            [
              -84.425133,
              33.765544
            ],
            [
              -84.425574,
              33.765487
            ],
            [
              -84.426123,
              33.765452
            ],
            [
              -84.426873,
              33.765453
            ],
            [
              -84.427866,
              33.765469
            ],
            [
              -84.4287693,
              33.7654685
            ]
          ],
          [
            [
              -84.4036902,
              33.7633285
            ],
            [
              -84.403869,
              33.7635296
            ],
            [
              -84.4039428,
              33.7636111
            ],
            [
              -84.4039915,
              33.7636536
            ],
            [
              -84.4040894,
              33.7637263
            ],
            [
              -84.4041816,
              33.7638026
            ],
            [
              -84.4042974,
              33.7639068
            ],
            [
              -84.4044932,
              33.7640936
            ],
            [
              -84.4045846,
              33.7641368
            ],
            [
              -84.4046391,
              33.7641902
            ],
            [
              -84.4047824,
              33.7643413
            ]
          ],
          [
            [
              -84.405549,
              33.7655462
            ],
            [
              -84.405723,
              33.7658893
            ],
            [
              -84.4058699,
              33.7661716
            ],
            [
              -84.4062878,
              33.7670103
            ],
            [
              -84.4065147,
              33.7675464
            ],
            [
              -84.4065621,
              33.7676542
            ],
            [
              -84.4067656,
              33.768106
            ],
            [
              -84.4068654,
              33.7683178
            ],
            [
              -84.4069118,
              33.7684195
            ],
            [
              -84.4073872,
              33.7694608
            ],
            [
              -84.4074701,
              33.7696046
            ],
            [
              -84.407512,
              33.769657
            ],
            [
              -84.407554,
              33.7697009
            ],
            [
              -84.4075797,
              33.7697312
            ],
            [
              -84.4076099,
              33.769771
            ],
            [
              -84.4076516,
              33.7698366
            ],
            [
              -84.4077136,
              33.7699614
            ],
            [
              -84.4077267,
              33.7699866
            ],
            [
              -84.4077314,
              33.7699955
            ],
            [
              -84.4077493,
              33.7700317
            ],
            [
              -84.4077686,
              33.7700706
            ],
            [
              -84.4079346,
              33.7704279
            ],
            [
              -84.4080437,
              33.7706238
            ],
            [
              -84.4081599,
              33.7707929
            ],
            [
              -84.4083799,
              33.7710858
            ],
            [
              -84.4083973,
              33.7711089
            ],
            [
              -84.4084066,
              33.7711191
            ],
            [
              -84.4084472,
              33.7711641
            ],
            [
              -84.4084864,
              33.7712098
            ],
            [
              -84.4092419,
              33.7719519
            ],
            [
              -84.409822,
              33.7725189
            ],
            [
              -84.4103064,
              33.7729911
            ],
            [
              -84.4105381,
              33.7732177
            ],
            [
              -84.4108012,
              33.7734712
            ],
            [
              -84.4109746,
              33.7736342
            ],
            [
              -84.411157,
              33.7738052
            ],
            [
              -84.4113579,
              33.7739651
            ],
            [
              -84.4113833,
              33.7739858
            ],
            [
              -84.4114324,
              33.7740259
            ],
            [
              -84.4114711,
              33.7740561
            ],
            [
              -84.4115238,
              33.7740972
            ],
            [
              -84.4116321,
              33.7741778
            ],
            [
              -84.4117708,
              33.77425
            ],
            [
              -84.411982,
              33.7743553
            ],
            [
              -84.4121712,
              33.7744408
            ],
            [
              -84.4123802,
              33.774525
            ],
            [
              -84.4124148,
              33.7745378
            ],
            [
              -84.4124617,
              33.7745552
            ],
            [
              -84.412541,
              33.7745766
            ],
            [
              -84.4128633,
              33.7746406
            ],
            [
              -84.4131379,
              33.7746979
            ],
            [
              -84.413574,
              33.7748097
            ]
          ],
          [
            [
              -84.4228192,
              33.7746292
            ],
            [
              -84.4228733,
              33.7746143
            ],
            [
              -84.4229211,
              33.7745946
            ],
            [
              -84.4230189,
              33.7745357
            ],
            [
              -84.4231247,
              33.7744783
            ],
            [
              -84.4232334,
              33.7744344
            ],
            [
              -84.4233477,
              33.7744031
            ],
            [
              -84.4234728,
              33.7743804
            ],
            [
              -84.4235594,
              33.7743537
            ]
          ],
          [
            [
              -84.416049,
              33.7748636
            ],
            [
              -84.4161519,
              33.7748578
            ],
            [
              -84.4162527,
              33.7748584
            ],
            [
              -84.4169252,
              33.7748666
            ],
            [
              -84.4170551,
              33.7748746
            ],
            [
              -84.41714,
              33.7748781
            ],
            [
              -84.4173003,
              33.7748804
            ],
            [
              -84.4173565,
              33.7748808
            ],
            [
              -84.4174304,
              33.7748814
            ],
            [
              -84.4175368,
              33.7748839
            ],
            [
              -84.418305,
              33.774895
            ],
            [
              -84.419692,
              33.774903
            ],
            [
              -84.4206213,
              33.7749016
            ],
            [
              -84.4209206,
              33.7748993
            ],
            [
              -84.421115,
              33.7748925
            ],
            [
              -84.4212202,
              33.7748804
            ],
            [
              -84.4213749,
              33.7748505
            ],
            [
              -84.4215098,
              33.7748281
            ],
            [
              -84.4216691,
              33.7748017
            ],
            [
              -84.422043,
              33.774753
            ],
            [
              -84.4228192,
              33.7746292
            ],
            [
              -84.4228556,
              33.7746234
            ],
            [
              -84.4230207,
              33.7746024
            ],
            [
              -84.4231263,
              33.7745943
            ],
            [
              -84.4231878,
              33.7745822
            ],
            [
              -84.4232375,
              33.7745645
            ],
            [
              -84.4232927,
              33.7745327
            ],
            [
              -84.4234107,
              33.774429
            ],
            [
              -84.4234728,
              33.7743804
            ]
          ],
          [
            [
              -84.4318463,
              33.7378091
            ],
            [
              -84.4321722,
              33.7382001
            ],
            [
              -84.4323637,
              33.7383857
            ],
            [
              -84.4327016,
              33.7386322
            ],
            [
              -84.4329223,
              33.7388389
            ],
            [
              -84.4329939,
              33.7389031
            ],
            [
              -84.4332466,
              33.7391125
            ],
            [
              -84.4334879,
              33.7393761
            ],
            [
              -84.4336214,
              33.7395387
            ],
            [
              -84.4337332,
              33.7397055
            ],
            [
              -84.433795,
              33.7398174
            ],
            [
              -84.4338662,
              33.7399555
            ],
            [
              -84.4339222,
              33.7400897
            ],
            [
              -84.4339652,
              33.7402224
            ],
            [
              -84.434009,
              33.7404004
            ],
            [
              -84.4340514,
              33.7406389
            ],
            [
              -84.4340609,
              33.7408166
            ],
            [
              -84.4340569,
              33.7410047
            ],
            [
              -84.4340438,
              33.7417229
            ],
            [
              -84.4340341,
              33.7420709
            ],
            [
              -84.4340232,
              33.7422653
            ],
            [
              -84.4340196,
              33.7423008
            ],
            [
              -84.4340057,
              33.7424391
            ],
            [
              -84.4340003,
              33.7424929
            ],
            [
              -84.433962,
              33.7427446
            ],
            [
              -84.4339204,
              33.7430534
            ],
            [
              -84.4338659,
              33.7433228
            ],
            [
              -84.4338054,
              33.7435173
            ],
            [
              -84.4337566,
              33.7436534
            ],
            [
              -84.4336939,
              33.7437823
            ],
            [
              -84.4335797,
              33.7439793
            ],
            [
              -84.433483,
              33.744112
            ],
            [
              -84.4334029,
              33.7442181
            ],
            [
              -84.4332726,
              33.7443645
            ],
            [
              -84.4331033,
              33.7445232
            ],
            [
              -84.4330063,
              33.7446138
            ],
            [
              -84.432877,
              33.7447307
            ],
            [
              -84.431424,
              33.7460329
            ],
            [
              -84.4307791,
              33.74662
            ],
            [
              -84.4305516,
              33.7468271
            ],
            [
              -84.4305013,
              33.7468678
            ],
            [
              -84.4291285,
              33.7481051
            ],
            [
              -84.4290285,
              33.7481953
            ],
            [
              -84.4284513,
              33.7487127
            ],
            [
              -84.4282792,
              33.7488823
            ],
            [
              -84.4282108,
              33.7489636
            ],
            [
              -84.4280327,
              33.7491617
            ],
            [
              -84.4278901,
              33.7493901
            ],
            [
              -84.427861,
              33.7494632
            ],
            [
              -84.4277742,
              33.7496814
            ],
            [
              -84.4277072,
              33.7497878
            ],
            [
              -84.4275759,
              33.7499063
            ],
            [
              -84.4274497,
              33.7500338
            ],
            [
              -84.4273836,
              33.7501462
            ],
            [
              -84.4273407,
              33.7502594
            ],
            [
              -84.4273084,
              33.7504185
            ],
            [
              -84.4272442,
              33.750602
            ],
            [
              -84.4271737,
              33.7507135
            ],
            [
              -84.426897,
              33.7509541
            ],
            [
              -84.4267849,
              33.7510149
            ],
            [
              -84.4267171,
              33.751091
            ],
            [
              -84.4263925,
              33.7521445
            ],
            [
              -84.4260706,
              33.7534127
            ],
            [
              -84.4259939,
              33.7536666
            ],
            [
              -84.425981,
              33.7537093
            ],
            [
              -84.4255087,
              33.7554375
            ],
            [
              -84.4254899,
              33.7555457
            ],
            [
              -84.4254564,
              33.7557932
            ],
            [
              -84.4254519,
              33.7558094
            ],
            [
              -84.4252901,
              33.7563875
            ],
            [
              -84.4252291,
              33.7565802
            ],
            [
              -84.425188,
              33.7567123
            ],
            [
              -84.4251617,
              33.7567649
            ],
            [
              -84.4251363,
              33.7568028
            ],
            [
              -84.4250856,
              33.7568691
            ],
            [
              -84.4250608,
              33.7569161
            ],
            [
              -84.4250399,
              33.7569723
            ],
            [
              -84.4247335,
              33.7581384
            ],
            [
              -84.4245463,
              33.7588288
            ],
            [
              -84.4245419,
              33.7588448
            ],
            [
              -84.4243946,
              33.7596395
            ],
            [
              -84.4242145,
              33.7603258
            ],
            [
              -84.4241752,
              33.7609223
            ]
          ],
          [
            [
              -84.4316787,
              33.7377551
            ],
            [
              -84.4315548,
              33.7373776
            ],
            [
              -84.43138,
              33.7370099
            ],
            [
              -84.4312111,
              33.7367489
            ],
            [
              -84.4309697,
              33.7365214
            ],
            [
              -84.4306612,
              33.7363207
            ],
            [
              -84.4289768,
              33.7352723
            ],
            [
              -84.4258279,
              33.7333808
            ],
            [
              -84.4253665,
              33.7331644
            ],
            [
              -84.4248033,
              33.7329927
            ]
          ],
          [
            [
              -84.4238899,
              33.7325306
            ],
            [
              -84.4238445,
              33.7325025
            ],
            [
              -84.423052,
              33.7319732
            ],
            [
              -84.4226119,
              33.7317145
            ],
            [
              -84.4225106,
              33.7316392
            ],
            [
              -84.4221977,
              33.7314065
            ],
            [
              -84.4219789,
              33.7312438
            ],
            [
              -84.4217569,
              33.7310827
            ],
            [
              -84.4211598,
              33.7306494
            ],
            [
              -84.4209732,
              33.7305142
            ],
            [
              -84.4205266,
              33.7301907
            ],
            [
              -84.4203747,
              33.7300806
            ],
            [
              -84.4193656,
              33.7294682
            ],
            [
              -84.4188617,
              33.7291612
            ],
            [
              -84.4179818,
              33.7286231
            ],
            [
              -84.4176674,
              33.7284309
            ],
            [
              -84.4174341,
              33.7282873
            ],
            [
              -84.4164799,
              33.7277
            ],
            [
              -84.4161478,
              33.7274784
            ],
            [
              -84.4147055,
              33.7265832
            ],
            [
              -84.4143278,
              33.7262886
            ],
            [
              -84.4140516,
              33.726039
            ],
            [
              -84.4136797,
              33.7256231
            ],
            [
              -84.4136117,
              33.7255354
            ],
            [
              -84.4135494,
              33.7254572
            ],
            [
              -84.4135044,
              33.7253981
            ],
            [
              -84.4134213,
              33.7253034
            ],
            [
              -84.413365,
              33.7252008
            ],
            [
              -84.4133247,
              33.7251048
            ],
            [
              -84.4133006,
              33.7250424
            ],
            [
              -84.4132443,
              33.7249119
            ],
            [
              -84.4131692,
              33.7247724
            ],
            [
              -84.4123927,
              33.7233982
            ],
            [
              -84.4121781,
              33.723009
            ],
            [
              -84.4120601,
              33.722758
            ],
            [
              -84.4119595,
              33.7225817
            ],
            [
              -84.4116677,
              33.7220858
            ],
            [
              -84.4115742,
              33.7219589
            ],
            [
              -84.4114025,
              33.7217828
            ],
            [
              -84.4111197,
              33.7215398
            ],
            [
              -84.4110311,
              33.7214725
            ],
            [
              -84.4108946,
              33.7213673
            ],
            [
              -84.4107436,
              33.7212749
            ],
            [
              -84.4105725,
              33.7211977
            ],
            [
              -84.410377,
              33.7211211
            ],
            [
              -84.4097145,
              33.7208742
            ],
            [
              -84.4094289,
              33.7207826
            ],
            [
              -84.4090912,
              33.7206926
            ],
            [
              -84.4087869,
              33.7206258
            ],
            [
              -84.4082346,
              33.7205521
            ],
            [
              -84.4080703,
              33.7205378
            ],
            [
              -84.4080224,
              33.7205337
            ],
            [
              -84.4077005,
              33.7205166
            ],
            [
              -84.4073454,
              33.7204968
            ],
            [
              -84.4063225,
              33.7204338
            ],
            [
              -84.4061257,
              33.7204274
            ],
            [
              -84.4060146,
              33.7204229
            ],
            [
              -84.4059412,
              33.7204131
            ],
            [
              -84.405718,
              33.7203718
            ],
            [
              -84.4056082,
              33.7203605
            ],
            [
              -84.4054631,
              33.7203527
            ],
            [
              -84.4051863,
              33.7203458
            ],
            [
              -84.4046145,
              33.7203247
            ],
            [
              -84.4044563,
              33.7203266
            ],
            [
              -84.4043207,
              33.7203377
            ],
            [
              -84.4040906,
              33.7203669
            ],
            [
              -84.403996,
              33.7203724
            ],
            [
              -84.4039118,
              33.7203714
            ],
            [
              -84.4036136,
              33.7203612
            ],
            [
              -84.4033553,
              33.7203629
            ],
            [
              -84.4030695,
              33.7203689
            ],
            [
              -84.4026678,
              33.720389
            ],
            [
              -84.4022722,
              33.7204249
            ],
            [
              -84.4019765,
              33.7204577
            ],
            [
              -84.4016039,
              33.7205131
            ],
            [
              -84.4014565,
              33.7205247
            ],
            [
              -84.4013105,
              33.7205318
            ],
            [
              -84.4010956,
              33.7205274
            ],
            [
              -84.4008657,
              33.7205072
            ],
            [
              -84.400686,
              33.7204782
            ],
            [
              -84.4005543,
              33.7204488
            ],
            [
              -84.4002197,
              33.7203604
            ],
            [
              -84.400045,
              33.7203274
            ],
            [
              -84.3998745,
              33.7203042
            ],
            [
              -84.3996998,
              33.7202931
            ],
            [
              -84.399347,
              33.7202837
            ],
            [
              -84.3991126,
              33.7202749
            ],
            [
              -84.3989341,
              33.7202525
            ],
            [
              -84.3986215,
              33.7201881
            ],
            [
              -84.3962251,
              33.7195579
            ],
            [
              -84.395669,
              33.7194255
            ],
            [
              -84.395282,
              33.719362
            ],
            [
              -84.3951552,
              33.7193519
            ],
            [
              -84.3949402,
              33.7193463
            ],
            [
              -84.3942513,
              33.7193555
            ],
            [
              -84.3939336,
              33.7193869
            ],
            [
              -84.3936772,
              33.7194402
            ],
            [
              -84.3935238,
              33.719477
            ],
            [
              -84.3932598,
              33.7195399
            ],
            [
              -84.3927896,
              33.719661
            ],
            [
              -84.3918735,
              33.7199494
            ],
            [
              -84.3903752,
              33.720541
            ],
            [
              -84.3899764,
              33.7207082
            ],
            [
              -84.389673,
              33.7208576
            ],
            [
              -84.388823,
              33.7212761
            ],
            [
              -84.3883029,
              33.7215536
            ],
            [
              -84.3877701,
              33.7218454
            ],
            [
              -84.3876431,
              33.721915
            ],
            [
              -84.3861881,
              33.7226384
            ],
            [
              -84.3851445,
              33.7231663
            ],
            [
              -84.3850572,
              33.7232101
            ],
            [
              -84.3848689,
              33.7232856
            ],
            [
              -84.3844683,
              33.7234948
            ],
            [
              -84.3838757,
              33.7237546
            ],
            [
              -84.3835723,
              33.7238678
            ],
            [
              -84.3832609,
              33.723969
            ],
            [
              -84.3828924,
              33.7240742
            ],
            [
              -84.3825119,
              33.7241617
            ],
            [
              -84.3822889,
              33.7242092
            ],
            [
              -84.3821531,
              33.7242276
            ],
            [
              -84.381743,
              33.7242791
            ],
            [
              -84.3808686,
              33.7243139
            ],
            [
              -84.3800005,
              33.7243202
            ],
            [
              -84.3786668,
              33.7243288
            ],
            [
              -84.3785944,
              33.7243293
            ],
            [
              -84.3785271,
              33.7243297
            ],
            [
              -84.3784394,
              33.7243303
            ],
            [
              -84.3783503,
              33.7243309
            ],
            [
              -84.378339,
              33.724331
            ],
            [
              -84.3774232,
              33.7243085
            ],
            [
              -84.3771564,
              33.7243095
            ],
            [
              -84.3767588,
              33.7243172
            ],
            [
              -84.3749745,
              33.7243519
            ],
            [
              -84.3747311,
              33.7243807
            ],
            [
              -84.3740398,
              33.7245293
            ],
            [
              -84.3733639,
              33.7247258
            ],
            [
              -84.3706796,
              33.7255437
            ],
            [
              -84.3702506,
              33.7256762
            ],
            [
              -84.3685132,
              33.726213
            ],
            [
              -84.3684212,
              33.7262387
            ],
            [
              -84.3683393,
              33.7262653
            ],
            [
              -84.3672178,
              33.7265987
            ],
            [
              -84.366499,
              33.7268374
            ],
            [
              -84.3660788,
              33.7269944
            ],
            [
              -84.3656411,
              33.7271879
            ],
            [
              -84.3651581,
              33.7274201
            ],
            [
              -84.3647102,
              33.7276767
            ],
            [
              -84.3640353,
              33.7280967
            ],
            [
              -84.3639152,
              33.7281724
            ],
            [
              -84.3638892,
              33.7281954
            ]
          ],
          [
            [
              -84.4209732,
              33.7305142
            ],
            [
              -84.4212956,
              33.7306797
            ],
            [
              -84.4221311,
              33.7311737
            ]
          ],
          [
            [
              -84.4205266,
              33.7301907
            ],
            [
              -84.4202225,
              33.7298926
            ],
            [
              -84.4200403,
              33.7296687
            ],
            [
              -84.4198978,
              33.7295139
            ],
            [
              -84.4197473,
              33.729369
            ],
            [
              -84.4196008,
              33.7292801
            ],
            [
              -84.4192009,
              33.729043
            ]
          ],
          [
            [
              -84.4174341,
              33.7282873
            ],
            [
              -84.4177357,
              33.7285786
            ],
            [
              -84.4189276,
              33.7296522
            ],
            [
              -84.4193711,
              33.7299321
            ],
            [
              -84.4206383,
              33.7306402
            ]
          ],
          [
            [
              -84.4193711,
              33.7299321
            ],
            [
              -84.418694,
              33.729639
            ],
            [
              -84.4178625,
              33.7292142
            ]
          ],
          [
            [
              -84.3569174,
              33.7527749
            ],
            [
              -84.3569089,
              33.7526283
            ]
          ],
          [
            [
              -84.3560236,
              33.7541978
            ],
            [
              -84.3562839,
              33.7540604
            ],
            [
              -84.3563811,
              33.7539887
            ],
            [
              -84.35641,
              33.7539674
            ],
            [
              -84.3564348,
              33.753942
            ],
            [
              -84.3565116,
              33.7538636
            ],
            [
              -84.3565235,
              33.7538515
            ],
            [
              -84.3566086,
              33.7537456
            ],
            [
              -84.3566307,
              33.7537134
            ],
            [
              -84.356696,
              33.75361
            ],
            [
              -84.3567653,
              33.7534655
            ],
            [
              -84.3568172,
              33.7533216
            ],
            [
              -84.3568586,
              33.7531654
            ],
            [
              -84.3568886,
              33.7530428
            ],
            [
              -84.3569111,
              33.7528288
            ],
            [
              -84.3569174,
              33.7527749
            ],
            [
              -84.3569344,
              33.7526303
            ]
          ],
          [
            [
              -84.3568886,
              33.7530428
            ],
            [
              -84.3569243,
              33.7528998
            ],
            [
              -84.3569381,
              33.7528296
            ],
            [
              -84.3569674,
              33.7527
            ],
            [
              -84.3569828,
              33.7526321
            ]
          ],
          [
            [
              -84.3570997,
              33.7517911
            ],
            [
              -84.3571402,
              33.751425
            ],
            [
              -84.3571726,
              33.7511511
            ],
            [
              -84.3572359,
              33.7507971
            ],
            [
              -84.3573691,
              33.7502721
            ],
            [
              -84.3573775,
              33.7502389
            ],
            [
              -84.3573862,
              33.7502065
            ],
            [
              -84.3573942,
              33.7501765
            ],
            [
              -84.3575526,
              33.7496212
            ],
            [
              -84.3575557,
              33.7496103
            ],
            [
              -84.3576214,
              33.7493759
            ],
            [
              -84.3576901,
              33.7491768
            ],
            [
              -84.3577194,
              33.7490881
            ],
            [
              -84.3577948,
              33.7488419
            ],
            [
              -84.3578913,
              33.7485181
            ],
            [
              -84.35792,
              33.7483437
            ],
            [
              -84.3579221,
              33.7482539
            ],
            [
              -84.3579137,
              33.7481387
            ],
            [
              -84.3579164,
              33.7480378
            ],
            [
              -84.3579467,
              33.7479276
            ],
            [
              -84.357983,
              33.7478364
            ],
            [
              -84.3580676,
              33.7476813
            ],
            [
              -84.3580779,
              33.747661
            ],
            [
              -84.3581113,
              33.747595
            ],
            [
              -84.3581373,
              33.7475015
            ],
            [
              -84.3582378,
              33.7467125
            ],
            [
              -84.3582413,
              33.7466629
            ],
            [
              -84.3580594,
              33.7466559
            ],
            [
              -84.3580592,
              33.7466451
            ],
            [
              -84.3580585,
              33.7465991
            ],
            [
              -84.3580591,
              33.7465501
            ],
            [
              -84.3580588,
              33.7465344
            ],
            [
              -84.358033,
              33.746522
            ],
            [
              -84.3580376,
              33.7464672
            ],
            [
              -84.3580863,
              33.7460765
            ],
            [
              -84.358118,
              33.7457313
            ],
            [
              -84.3581372,
              33.745408
            ],
            [
              -84.3581395,
              33.7453691
            ],
            [
              -84.3581428,
              33.7453267
            ],
            [
              -84.3581444,
              33.7452723
            ],
            [
              -84.3581601,
              33.7448953
            ],
            [
              -84.3581271,
              33.7444509
            ],
            [
              -84.358118,
              33.744095
            ]
          ],
          [
            [
              -84.3581402,
              33.7431297
            ],
            [
              -84.3581471,
              33.7439127
            ],
            [
              -84.3581212,
              33.743997
            ]
          ],
          [
            [
              -84.3580982,
              33.7419482
            ],
            [
              -84.3581136,
              33.7426841
            ],
            [
              -84.3581239,
              33.7427767
            ],
            [
              -84.3581226,
              33.7428125
            ],
            [
              -84.3581183,
              33.7429315
            ],
            [
              -84.3580952,
              33.7429335
            ]
          ],
          [
            [
              -84.3581282,
              33.7417827
            ],
            [
              -84.3581201,
              33.7415415
            ],
            [
              -84.358097,
              33.7414771
            ],
            [
              -84.3580848,
              33.7406588
            ]
          ],
          [
            [
              -84.3580983,
              33.7398382
            ],
            [
              -84.3580871,
              33.7404976
            ]
          ],
          [
            [
              -84.3582129,
              33.7397632
            ],
            [
              -84.3582279,
              33.7397081
            ],
            [
              -84.3583715,
              33.7391828
            ],
            [
              -84.358525,
              33.7386713
            ],
            [
              -84.3587563,
              33.737995
            ],
            [
              -84.3595568,
              33.7356548
            ],
            [
              -84.3597,
              33.7352255
            ],
            [
              -84.3597591,
              33.7350504
            ],
            [
              -84.3599377,
              33.7345474
            ],
            [
              -84.3601337,
              33.7338928
            ]
          ],
          [
            [
              -84.363698,
              33.7283487
            ],
            [
              -84.3634332,
              33.7285938
            ],
            [
              -84.3631297,
              33.728856
            ],
            [
              -84.3628903,
              33.7290793
            ],
            [
              -84.3626685,
              33.7293075
            ],
            [
              -84.3623883,
              33.7296279
            ],
            [
              -84.3621898,
              33.7298658
            ],
            [
              -84.3619563,
              33.7301911
            ],
            [
              -84.3617257,
              33.7305237
            ],
            [
              -84.3614805,
              33.7309412
            ],
            [
              -84.3612239,
              33.7314135
            ],
            [
              -84.3611798,
              33.7314947
            ],
            [
              -84.3611732,
              33.731509
            ],
            [
              -84.3610076,
              33.7318661
            ],
            [
              -84.3607624,
              33.732354
            ],
            [
              -84.360648,
              33.7326567
            ],
            [
              -84.360499,
              33.7329926
            ],
            [
              -84.3602708,
              33.7335187
            ]
          ],
          [
            [
              -84.4136286,
              33.7222659
            ],
            [
              -84.4146851,
              33.7226371
            ],
            [
              -84.4164687,
              33.7234341
            ],
            [
              -84.4178905,
              33.7242006
            ],
            [
              -84.4179721,
              33.7242396
            ],
            [
              -84.4180714,
              33.7242852
            ],
            [
              -84.4184078,
              33.7244451
            ],
            [
              -84.4187112,
              33.7245408
            ],
            [
              -84.4190654,
              33.7246023
            ],
            [
              -84.419693,
              33.7245951
            ],
            [
              -84.4198407,
              33.7245714
            ],
            [
              -84.420067,
              33.724483
            ],
            [
              -84.4202894,
              33.7243814
            ],
            [
              -84.4205571,
              33.7242104
            ]
          ]
        ]
      },
      "id": "relation/13048389"
    }
  ]
}