{
  "type": "FeatureCollection",
  "name": "Atlanta BeltLine access points",
  "metadata": {
    "description": "Trailheads, park entrances, transit connections and street crossings.",
    "note": "Names and amenities are hand-curated. Positions are snapped onto the OpenStreetMap corridor; snappedMeters records how far each moved, and a large value means the hand-written starting guess was poor and the result is worth checking.",
    "generatedBy": "tools/build-data.js"
  },
  "features": [
    {
      "type": "Feature",
      "id": "ap-001",
      "properties": {
        "id": "ap-001",
        "name": "Piedmont Park — Park Tavern",
        "segment": "northeast-open-1",
        "type": "park",
        "amenities": [
          "restrooms",
          "water",
          "bus"
        ],
        "description": "10th St NE at Monroe Dr. Busiest entrance on the trail.",
        "snappedMeters": 34
      },
      "geometry": {
        "type": "Point",
        "coordinates": [
          -84.368795,
          33.782372
        ]
      }
    },
    {
      "type": "Feature",
      "id": "ap-002",
      "properties": {
        "id": "ap-002",
        "name": "Piedmont Park — North Woods",
        "segment": "northeast-open-1",
        "type": "park",
        "amenities": [
          "restrooms",
          "water"
        ],
        "description": "North end of the park, near the Northeast Trail junction.",
        "snappedMeters": 38
      },
      "geometry": {
        "type": "Point",
        "coordinates": [
          -84.370274,
          33.784357
        ]
      }
    },
    {
      "type": "Feature",
      "id": "ap-003",
      "properties": {
        "id": "ap-003",
        "name": "Monroe Drive at Virginia Ave",
        "segment": "eastside",
        "type": "street",
        "amenities": [
          "bus"
        ],
        "description": "Street-level crossing.",
        "snappedMeters": 76
      },
      "geometry": {
        "type": "Point",
        "coordinates": [
          -84.365937,
          33.778453
        ]
      }
    },
    {
      "type": "Feature",
      "id": "ap-004",
      "properties": {
        "id": "ap-004",
        "name": "Amsterdam Walk",
        "segment": "eastside",
        "type": "street",
        "amenities": [
          "food"
        ],
        "description": "Access from Amsterdam Ave NE.",
        "snappedMeters": 58
      },
      "geometry": {
        "type": "Point",
        "coordinates": [
          -84.365491,
          33.777134
        ]
      }
    },
    {
      "type": "Feature",
      "id": "ap-005",
      "properties": {
        "id": "ap-005",
        "name": "Ponce City Market",
        "segment": "eastside",
        "type": "trailhead",
        "amenities": [
          "restrooms",
          "food",
          "water",
          "parking",
          "bike-share"
        ],
        "description": "Ramp and stairs to the Central Food Hall. Paid parking deck.",
        "snappedMeters": 9
      },
      "geometry": {
        "type": "Point",
        "coordinates": [
          -84.364398,
          33.772582
        ]
      }
    },
    {
      "type": "Feature",
      "id": "ap-006",
      "properties": {
        "id": "ap-006",
        "name": "Ponce de Leon Ave",
        "segment": "eastside",
        "type": "street",
        "amenities": [
          "bus"
        ],
        "description": "Trail passes under Ponce; access via PCM ramp.",
        "snappedMeters": 2
      },
      "geometry": {
        "type": "Point",
        "coordinates": [
          -84.363975,
          33.771402
        ]
      }
    },
    {
      "type": "Feature",
      "id": "ap-007",
      "properties": {
        "id": "ap-007",
        "name": "North Avenue",
        "segment": "eastside",
        "type": "street",
        "amenities": [],
        "description": "Stair and ramp access.",
        "snappedMeters": 40
      },
      "geometry": {
        "type": "Point",
        "coordinates": [
          -84.363327,
          33.770178
        ]
      }
    },
    {
      "type": "Feature",
      "id": "ap-008",
      "properties": {
        "id": "ap-008",
        "name": "Historic Fourth Ward Park",
        "segment": "eastside",
        "type": "park",
        "amenities": [
          "restrooms",
          "water",
          "playground",
          "parking"
        ],
        "description": "Skate park, splash pad and the retention pond.",
        "snappedMeters": 202
      },
      "geometry": {
        "type": "Point",
        "coordinates": [
          -84.361531,
          33.768173
        ]
      }
    },
    {
      "type": "Feature",
      "id": "ap-009",
      "properties": {
        "id": "ap-009",
        "name": "Freedom Parkway / PATH",
        "segment": "eastside",
        "type": "trailhead",
        "amenities": [
          "bike-share"
        ],
        "description": "Connects to the PATH Freedom Park Trail.",
        "snappedMeters": 295
      },
      "geometry": {
        "type": "Point",
        "coordinates": [
          -84.359859,
          33.763396
        ]
      }
    },
    {
      "type": "Feature",
      "id": "ap-010",
      "properties": {
        "id": "ap-010",
        "name": "Irwin Street",
        "segment": "eastside",
        "type": "street",
        "amenities": [
          "food"
        ],
        "description": "Inman Park edge, by Krog Street Market.",
        "snappedMeters": 115
      },
      "geometry": {
        "type": "Point",
        "coordinates": [
          -84.365327,
          33.755347
        ]
      }
    },
    {
      "type": "Feature",
      "id": "ap-011",
      "properties": {
        "id": "ap-011",
        "name": "Krog Street Market",
        "segment": "eastside",
        "type": "trailhead",
        "amenities": [
          "restrooms",
          "food",
          "bike-share"
        ],
        "description": "Stairs down to Krog St NE and the tunnel.",
        "snappedMeters": 106
      },
      "geometry": {
        "type": "Point",
        "coordinates": [
          -84.365432,
          33.754737
        ]
      }
    },
    {
      "type": "Feature",
      "id": "ap-012",
      "properties": {
        "id": "ap-012",
        "name": "Wylie Street",
        "segment": "southeast",
        "type": "street",
        "amenities": [],
        "description": "Reynoldstown.",
        "snappedMeters": 55
      },
      "geometry": {
        "type": "Point",
        "coordinates": [
          -84.363158,
          33.752292
        ]
      }
    },
    {
      "type": "Feature",
      "id": "ap-013",
      "properties": {
        "id": "ap-013",
        "name": "Kirkwood Avenue",
        "segment": "southeast",
        "type": "street",
        "amenities": [
          "food"
        ],
        "description": "Reynoldstown.",
        "snappedMeters": 265
      },
      "geometry": {
        "type": "Point",
        "coordinates": [
          -84.357891,
          33.748518
        ]
      }
    },
    {
      "type": "Feature",
      "id": "ap-014",
      "properties": {
        "id": "ap-014",
        "name": "Bill Kennedy Way",
        "segment": "southeast",
        "type": "street",
        "amenities": [
          "parking"
        ],
        "description": "Street crossing with on-street parking.",
        "snappedMeters": 29
      },
      "geometry": {
        "type": "Point",
        "coordinates": [
          -84.35811,
          33.74582
        ]
      }
    },
    {
      "type": "Feature",
      "id": "ap-015",
      "properties": {
        "id": "ap-015",
        "name": "Memorial Drive",
        "segment": "southeast",
        "type": "trailhead",
        "amenities": [
          "bus"
        ],
        "description": "Eastside/Southside junction.",
        "snappedMeters": 235
      },
      "geometry": {
        "type": "Point",
        "coordinates": [
          -84.358142,
          33.743384
        ]
      }
    },
    {
      "type": "Feature",
      "id": "ap-016",
      "properties": {
        "id": "ap-016",
        "name": "Glenwood Avenue",
        "segment": "southeast",
        "type": "street",
        "amenities": [
          "bus"
        ],
        "description": "Street crossing.",
        "snappedMeters": 198
      },
      "geometry": {
        "type": "Point",
        "coordinates": [
          -84.358139,
          33.740551
        ]
      }
    },
    {
      "type": "Feature",
      "id": "ap-017",
      "properties": {
        "id": "ap-017",
        "name": "Glenwood Park",
        "segment": "southside",
        "type": "park",
        "amenities": [
          "food",
          "water"
        ],
        "description": "Neighborhood green and shops.",
        "snappedMeters": 169
      },
      "geometry": {
        "type": "Point",
        "coordinates": [
          -84.358953,
          33.73742
        ]
      }
    },
    {
      "type": "Feature",
      "id": "ap-018",
      "properties": {
        "id": "ap-018",
        "name": "Ormewood Avenue",
        "segment": "southside",
        "type": "street",
        "amenities": [],
        "description": "Ormewood Park.",
        "snappedMeters": 43
      },
      "geometry": {
        "type": "Point",
        "coordinates": [
          -84.360438,
          33.733133
        ]
      }
    },
    {
      "type": "Feature",
      "id": "ap-019",
      "properties": {
        "id": "ap-019",
        "name": "Boulevard Crossing Park",
        "segment": "southside",
        "type": "park",
        "amenities": [
          "restrooms",
          "parking",
          "playground"
        ],
        "description": "Parking off Boulevard SE.",
        "snappedMeters": 66
      },
      "geometry": {
        "type": "Point",
        "coordinates": [
          -84.370355,
          33.725644
        ]
      }
    },
    {
      "type": "Feature",
      "id": "ap-020",
      "properties": {
        "id": "ap-020",
        "name": "Boulevard SE",
        "segment": "southside",
        "type": "street",
        "amenities": [
          "bus"
        ],
        "description": "Street crossing.",
        "snappedMeters": 12
      },
      "geometry": {
        "type": "Point",
        "coordinates": [
          -84.372154,
          33.725094
        ]
      }
    },
    {
      "type": "Feature",
      "id": "ap-021",
      "properties": {
        "id": "ap-021",
        "name": "Hill Street",
        "segment": "southside",
        "type": "street",
        "amenities": [],
        "description": "Chosewood edge.",
        "snappedMeters": 169
      },
      "geometry": {
        "type": "Point",
        "coordinates": [
          -84.379214,
          33.724325
        ]
      }
    },
    {
      "type": "Feature",
      "id": "ap-022",
      "properties": {
        "id": "ap-022",
        "name": "Chosewood Park",
        "segment": "southside",
        "type": "park",
        "amenities": [
          "restrooms",
          "playground",
          "parking"
        ],
        "description": "Pool and ball fields.",
        "snappedMeters": 217
      },
      "geometry": {
        "type": "Point",
        "coordinates": [
          -84.385712,
          33.722879
        ]
      }
    },
    {
      "type": "Feature",
      "id": "ap-023",
      "properties": {
        "id": "ap-023",
        "name": "Englewood Avenue",
        "segment": "southside",
        "type": "street",
        "amenities": [],
        "description": "Street crossing.",
        "snappedMeters": 157
      },
      "geometry": {
        "type": "Point",
        "coordinates": [
          -84.390522,
          33.720483
        ]
      }
    },
    {
      "type": "Feature",
      "id": "ap-024",
      "properties": {
        "id": "ap-024",
        "name": "Pryor Road",
        "segment": "southside",
        "type": "street",
        "amenities": [
          "bus"
        ],
        "description": "Street crossing.",
        "snappedMeters": 183
      },
      "geometry": {
        "type": "Point",
        "coordinates": [
          -84.393082,
          33.719586
        ]
      }
    },
    {
      "type": "Feature",
      "id": "ap-025",
      "properties": {
        "id": "ap-025",
        "name": "McDaniel Street",
        "segment": "southside",
        "type": "street",
        "amenities": [],
        "description": "Pittsburgh.",
        "snappedMeters": 818
      },
      "geometry": {
        "type": "Point",
        "coordinates": [
          -84.402727,
          33.720386
        ]
      }
    },
    {
      "type": "Feature",
      "id": "ap-026",
      "properties": {
        "id": "ap-026",
        "name": "University Ave / Pittsburgh Yards",
        "segment": "southside",
        "type": "trailhead",
        "amenities": [
          "parking",
          "food"
        ],
        "description": "Southside/Westside junction.",
        "snappedMeters": 980
      },
      "geometry": {
        "type": "Point",
        "coordinates": [
          -84.405463,
          33.720353
        ]
      }
    },
    {
      "type": "Feature",
      "id": "ap-027",
      "properties": {
        "id": "ap-027",
        "name": "Allene Avenue",
        "segment": "southwest-open-1",
        "type": "street",
        "amenities": [],
        "description": "Adair Park.",
        "snappedMeters": 305
      },
      "geometry": {
        "type": "Point",
        "coordinates": [
          -84.408966,
          33.720665
        ]
      }
    },
    {
      "type": "Feature",
      "id": "ap-028",
      "properties": {
        "id": "ap-028",
        "name": "Murphy Avenue / Adair Park",
        "segment": "southwest-open-1",
        "type": "park",
        "amenities": [
          "playground"
        ],
        "description": "Adair Park entrance.",
        "snappedMeters": 33
      },
      "geometry": {
        "type": "Point",
        "coordinates": [
          -84.410667,
          33.72124
        ]
      }
    },
    {
      "type": "Feature",
      "id": "ap-029",
      "properties": {
        "id": "ap-029",
        "name": "White Street",
        "segment": "southwest-open-1",
        "type": "street",
        "amenities": [],
        "description": "Street crossing.",
        "snappedMeters": 192
      },
      "geometry": {
        "type": "Point",
        "coordinates": [
          -84.412878,
          33.724256
        ]
      }
    },
    {
      "type": "Feature",
      "id": "ap-030",
      "properties": {
        "id": "ap-030",
        "name": "Lee Street / West End MARTA",
        "segment": "southwest-open-1",
        "type": "transit",
        "amenities": [
          "rail",
          "bus",
          "parking",
          "bike-share"
        ],
        "description": "West End station — Red and Gold lines.",
        "snappedMeters": 320
      },
      "geometry": {
        "type": "Point",
        "coordinates": [
          -84.414857,
          33.726677
        ]
      }
    },
    {
      "type": "Feature",
      "id": "ap-031",
      "properties": {
        "id": "ap-031",
        "name": "Ralph David Abernathy Blvd",
        "segment": "southwest-open-1",
        "type": "street",
        "amenities": [
          "food",
          "bus"
        ],
        "description": "West End business district.",
        "snappedMeters": 730
      },
      "geometry": {
        "type": "Point",
        "coordinates": [
          -84.421662,
          33.731014
        ]
      }
    },
    {
      "type": "Feature",
      "id": "ap-032",
      "properties": {
        "id": "ap-032",
        "name": "Lawton Street",
        "segment": "westside-interim",
        "type": "street",
        "amenities": [],
        "description": "Westview edge.",
        "snappedMeters": 907
      },
      "geometry": {
        "type": "Point",
        "coordinates": [
          -84.424109,
          33.732761
        ]
      }
    },
    {
      "type": "Feature",
      "id": "ap-033",
      "properties": {
        "id": "ap-033",
        "name": "Langhorn Street / Ashview Heights",
        "segment": "westside-open",
        "type": "street",
        "amenities": [],
        "description": "Street crossing.",
        "snappedMeters": 758
      },
      "geometry": {
        "type": "Point",
        "coordinates": [
          -84.428487,
          33.748681
        ]
      }
    },
    {
      "type": "Feature",
      "id": "ap-034",
      "properties": {
        "id": "ap-034",
        "name": "Lena Street",
        "segment": "westside-open",
        "type": "trailhead",
        "amenities": [],
        "description": "Ashview Heights trailhead.",
        "snappedMeters": 308
      },
      "geometry": {
        "type": "Point",
        "coordinates": [
          -84.427952,
          33.749291
        ]
      }
    },
    {
      "type": "Feature",
      "id": "ap-035",
      "properties": {
        "id": "ap-035",
        "name": "Washington Park",
        "segment": "westside-open",
        "type": "park",
        "amenities": [
          "restrooms",
          "pool",
          "parking"
        ],
        "description": "Natatorium and tennis center.",
        "snappedMeters": 154
      },
      "geometry": {
        "type": "Point",
        "coordinates": [
          -84.425577,
          33.755189
        ]
      }
    },
    {
      "type": "Feature",
      "id": "ap-036",
      "properties": {
        "id": "ap-036",
        "name": "Rockdale Park / Hollowell Pkwy",
        "segment": "westside-open",
        "type": "street",
        "amenities": [
          "bus"
        ],
        "description": "Donald Lee Hollowell Pkwy crossing.",
        "snappedMeters": 683
      },
      "geometry": {
        "type": "Point",
        "coordinates": [
          -84.426211,
          33.774696
        ]
      }
    },
    {
      "type": "Feature",
      "id": "ap-037",
      "properties": {
        "id": "ap-037",
        "name": "Grove Park / Johnson Road",
        "segment": "westside-open",
        "type": "street",
        "amenities": [],
        "description": "Grove Park.",
        "snappedMeters": 237
      },
      "geometry": {
        "type": "Point",
        "coordinates": [
          -84.429615,
          33.780788
        ]
      }
    },
    {
      "type": "Feature",
      "id": "ap-038",
      "properties": {
        "id": "ap-038",
        "name": "Westside Park at Bellwood Quarry",
        "segment": "northwest-open-1",
        "type": "park",
        "amenities": [
          "restrooms",
          "water",
          "parking",
          "playground"
        ],
        "description": "Atlanta's largest park; the quarry reservoir overlook.",
        "snappedMeters": 168
      },
      "geometry": {
        "type": "Point",
        "coordinates": [
          -84.428228,
          33.787823
        ]
      }
    },
    {
      "type": "Feature",
      "id": "ap-039",
      "properties": {
        "id": "ap-039",
        "name": "Marietta Blvd / Chattahoochee Ave",
        "segment": "northwest-open-1",
        "type": "street",
        "amenities": [
          "bus"
        ],
        "description": "Planned alignment — not yet a built trailhead.",
        "snappedMeters": 644
      },
      "geometry": {
        "type": "Point",
        "coordinates": [
          -84.42948,
          33.790567
        ]
      }
    },
    {
      "type": "Feature",
      "id": "ap-040",
      "properties": {
        "id": "ap-040",
        "name": "Howell Mill Road",
        "segment": "northwest-planned",
        "type": "street",
        "amenities": [
          "food"
        ],
        "description": "Planned alignment.",
        "snappedMeters": 0
      },
      "geometry": {
        "type": "Point",
        "coordinates": [
          -84.422,
          33.8005
        ]
      }
    },
    {
      "type": "Feature",
      "id": "ap-041",
      "properties": {
        "id": "ap-041",
        "name": "Bobby Jones Golf Course",
        "segment": "northside-open-1",
        "type": "park",
        "amenities": [
          "parking"
        ],
        "description": "Planned alignment.",
        "snappedMeters": 715
      },
      "geometry": {
        "type": "Point",
        "coordinates": [
          -84.402737,
          33.808716
        ]
      }
    },
    {
      "type": "Feature",
      "id": "ap-042",
      "properties": {
        "id": "ap-042",
        "name": "Tanyard Creek Park",
        "segment": "northside-open-1",
        "type": "park",
        "amenities": [
          "water",
          "playground"
        ],
        "description": "Connects to the Tanyard Creek PATH trail.",
        "snappedMeters": 208
      },
      "geometry": {
        "type": "Point",
        "coordinates": [
          -84.402788,
          33.808841
        ]
      }
    },
    {
      "type": "Feature",
      "id": "ap-043",
      "properties": {
        "id": "ap-043",
        "name": "Northside Drive",
        "segment": "northside-open-1",
        "type": "street",
        "amenities": [
          "bus"
        ],
        "description": "Planned crossing.",
        "snappedMeters": 228
      },
      "geometry": {
        "type": "Point",
        "coordinates": [
          -84.401377,
          33.810831
        ]
      }
    },
    {
      "type": "Feature",
      "id": "ap-044",
      "properties": {
        "id": "ap-044",
        "name": "Ardmore Park",
        "segment": "northside-open-1",
        "type": "park",
        "amenities": [
          "playground"
        ],
        "description": "Planned alignment.",
        "snappedMeters": 517
      },
      "geometry": {
        "type": "Point",
        "coordinates": [
          -84.400122,
          33.806124
        ]
      }
    },
    {
      "type": "Feature",
      "id": "ap-045",
      "properties": {
        "id": "ap-045",
        "name": "Peachtree Road / Brookwood",
        "segment": "northside-planned-1",
        "type": "street",
        "amenities": [
          "bus",
          "food"
        ],
        "description": "Planned crossing.",
        "snappedMeters": 470
      },
      "geometry": {
        "type": "Point",
        "coordinates": [
          -84.390631,
          33.813713
        ]
      }
    },
    {
      "type": "Feature",
      "id": "ap-046",
      "properties": {
        "id": "ap-046",
        "name": "Armour Yards",
        "segment": "northeast-construction",
        "type": "trailhead",
        "amenities": [
          "food",
          "parking"
        ],
        "description": "Armour Drive industrial district.",
        "snappedMeters": 157
      },
      "geometry": {
        "type": "Point",
        "coordinates": [
          -84.374698,
          33.816292
        ]
      }
    },
    {
      "type": "Feature",
      "id": "ap-047",
      "properties": {
        "id": "ap-047",
        "name": "Lindbergh Center MARTA",
        "segment": "northeast-planned-2",
        "type": "transit",
        "amenities": [
          "rail",
          "bus",
          "parking"
        ],
        "description": "Lindbergh Center station — northern top of the loop.",
        "snappedMeters": 0
      },
      "geometry": {
        "type": "Point",
        "coordinates": [
          -84.3672,
          33.8215
        ]
      }
    },
    {
      "type": "Feature",
      "id": "ap-048",
      "properties": {
        "id": "ap-048",
        "name": "Piedmont Road",
        "segment": "northeast-planned-2",
        "type": "street",
        "amenities": [
          "bus",
          "food"
        ],
        "description": "Piedmont Heights.",
        "snappedMeters": 659
      },
      "geometry": {
        "type": "Point",
        "coordinates": [
          -84.367531,
          33.821224
        ]
      }
    },
    {
      "type": "Feature",
      "id": "ap-049",
      "properties": {
        "id": "ap-049",
        "name": "Montgomery Ferry Drive",
        "segment": "northeast-open-2",
        "type": "street",
        "amenities": [],
        "description": "Piedmont Heights.",
        "snappedMeters": 899
      },
      "geometry": {
        "type": "Point",
        "coordinates": [
          -84.374403,
          33.801742
        ]
      }
    },
    {
      "type": "Feature",
      "id": "ap-050",
      "properties": {
        "id": "ap-050",
        "name": "Ansley Mall",
        "segment": "northeast-interim",
        "type": "trailhead",
        "amenities": [
          "food",
          "parking",
          "restrooms"
        ],
        "description": "Shopping center parking and food.",
        "snappedMeters": 82
      },
      "geometry": {
        "type": "Point",
        "coordinates": [
          -84.370358,
          33.793811
        ]
      }
    },
    {
      "type": "Feature",
      "id": "ap-051",
      "properties": {
        "id": "ap-051",
        "name": "Monroe Drive / Ansley",
        "segment": "northeast-interim",
        "type": "street",
        "amenities": [
          "bus"
        ],
        "description": "Street crossing.",
        "snappedMeters": 27
      },
      "geometry": {
        "type": "Point",
        "coordinates": [
          -84.370295,
          33.790528
        ]
      }
    }
  ]
}
