{
  "type": "FeatureCollection",
  "name": "Atlanta BeltLine corridor",
  "metadata": {
    "description": "Approximate centerline of the 22-mile Atlanta BeltLine loop, split by named trail segment.",
    "accuracy": "Hand-traced from known geography, not survey data. Replace with the official alignment for anything that matters.",
    "generatedBy": "tools/build-data.js"
  },
  "features": [
    {
      "type": "Feature",
      "id": "eastside",
      "properties": {
        "id": "eastside",
        "name": "Eastside Trail",
        "status": "open",
        "note": "Piedmont Park to Memorial Drive, through Ponce City Market and Krog Street Market.",
        "lengthMeters": 4958
      },
      "geometry": {
        "type": "LineString",
        "coordinates": [
          [
            -84.3705,
            33.7855
          ],
          [
            -84.371,
            33.7838
          ],
          [
            -84.3712,
            33.7818
          ],
          [
            -84.3702,
            33.78
          ],
          [
            -84.369,
            33.7786
          ],
          [
            -84.3679,
            33.777
          ],
          [
            -84.367,
            33.7755
          ],
          [
            -84.3663,
            33.774
          ],
          [
            -84.3657,
            33.7726
          ],
          [
            -84.3656,
            33.7712
          ],
          [
            -84.3655,
            33.77
          ],
          [
            -84.3657,
            33.7684
          ],
          [
            -84.366,
            33.7666
          ],
          [
            -84.3658,
            33.7652
          ],
          [
            -84.3655,
            33.764
          ],
          [
            -84.3652,
            33.7622
          ],
          [
            -84.365,
            33.76
          ],
          [
            -84.3648,
            33.758
          ],
          [
            -84.3647,
            33.7566
          ],
          [
            -84.3646,
            33.7554
          ],
          [
            -84.3644,
            33.754
          ],
          [
            -84.364,
            33.7525
          ],
          [
            -84.363,
            33.751
          ],
          [
            -84.3616,
            33.7495
          ],
          [
            -84.3603,
            33.748
          ],
          [
            -84.3591,
            33.7466
          ],
          [
            -84.3578,
            33.7455
          ],
          [
            -84.3565,
            33.7444
          ]
        ]
      }
    },
    {
      "type": "Feature",
      "id": "southside",
      "properties": {
        "id": "southside",
        "name": "Southside Trail",
        "status": "construction",
        "note": "Memorial Drive to University Avenue. Paved conversion is phased; interim surface in places.",
        "lengthMeters": 6265
      },
      "geometry": {
        "type": "LineString",
        "coordinates": [
          [
            -84.3565,
            33.7444
          ],
          [
            -84.3562,
            33.7428
          ],
          [
            -84.3562,
            33.7405
          ],
          [
            -84.3566,
            33.7388
          ],
          [
            -84.3572,
            33.737
          ],
          [
            -84.3582,
            33.7352
          ],
          [
            -84.36,
            33.733
          ],
          [
            -84.362,
            33.7315
          ],
          [
            -84.3642,
            33.73
          ],
          [
            -84.3668,
            33.7285
          ],
          [
            -84.369,
            33.7272
          ],
          [
            -84.3706,
            33.7262
          ],
          [
            -84.3722,
            33.7252
          ],
          [
            -84.3745,
            33.7244
          ],
          [
            -84.3768,
            33.7236
          ],
          [
            -84.3792,
            33.7228
          ],
          [
            -84.3818,
            33.722
          ],
          [
            -84.3845,
            33.7212
          ],
          [
            -84.3872,
            33.7202
          ],
          [
            -84.3898,
            33.7192
          ],
          [
            -84.3925,
            33.718
          ],
          [
            -84.395,
            33.7168
          ],
          [
            -84.3975,
            33.7155
          ],
          [
            -84.4,
            33.7142
          ],
          [
            -84.4022,
            33.713
          ],
          [
            -84.4042,
            33.7122
          ],
          [
            -84.406,
            33.7115
          ]
        ]
      }
    },
    {
      "type": "Feature",
      "id": "westside",
      "properties": {
        "id": "westside",
        "name": "Westside Trail",
        "status": "open",
        "note": "University Avenue to Washington Park, through Adair Park, Pittsburgh and West End.",
        "lengthMeters": 5329
      },
      "geometry": {
        "type": "LineString",
        "coordinates": [
          [
            -84.406,
            33.7115
          ],
          [
            -84.407,
            33.7128
          ],
          [
            -84.408,
            33.7145
          ],
          [
            -84.409,
            33.7162
          ],
          [
            -84.4098,
            33.718
          ],
          [
            -84.4102,
            33.7198
          ],
          [
            -84.4105,
            33.7215
          ],
          [
            -84.4108,
            33.7232
          ],
          [
            -84.411,
            33.725
          ],
          [
            -84.4118,
            33.7268
          ],
          [
            -84.4128,
            33.729
          ],
          [
            -84.4138,
            33.7308
          ],
          [
            -84.4148,
            33.7325
          ],
          [
            -84.4157,
            33.7342
          ],
          [
            -84.4165,
            33.736
          ],
          [
            -84.4178,
            33.7378
          ],
          [
            -84.4195,
            33.74
          ],
          [
            -84.421,
            33.742
          ],
          [
            -84.4225,
            33.744
          ],
          [
            -84.4238,
            33.746
          ],
          [
            -84.425,
            33.748
          ],
          [
            -84.4258,
            33.75
          ],
          [
            -84.4265,
            33.752
          ],
          [
            -84.4269,
            33.7538
          ],
          [
            -84.4272,
            33.7555
          ]
        ]
      }
    },
    {
      "type": "Feature",
      "id": "westside-segment-4",
      "properties": {
        "id": "westside-segment-4",
        "name": "Westside Trail — Segment 4",
        "status": "open",
        "note": "Washington Park north to Westside Park at Bellwood Quarry.",
        "lengthMeters": 3643
      },
      "geometry": {
        "type": "LineString",
        "coordinates": [
          [
            -84.4272,
            33.7555
          ],
          [
            -84.4278,
            33.7575
          ],
          [
            -84.4285,
            33.76
          ],
          [
            -84.4292,
            33.7625
          ],
          [
            -84.43,
            33.765
          ],
          [
            -84.4305,
            33.7675
          ],
          [
            -84.431,
            33.77
          ],
          [
            -84.4313,
            33.7725
          ],
          [
            -84.4315,
            33.775
          ],
          [
            -84.4318,
            33.7775
          ],
          [
            -84.432,
            33.78
          ],
          [
            -84.432,
            33.7822
          ],
          [
            -84.4318,
            33.7845
          ],
          [
            -84.431,
            33.7862
          ],
          [
            -84.43,
            33.7875
          ]
        ]
      }
    },
    {
      "type": "Feature",
      "id": "northwest",
      "properties": {
        "id": "northwest",
        "name": "Northwest Trail",
        "status": "planned",
        "note": "Westside Park to Peachtree Creek, via Chattahoochee Avenue, Bobby Jones and Tanyard Creek.",
        "lengthMeters": 6784
      },
      "geometry": {
        "type": "LineString",
        "coordinates": [
          [
            -84.43,
            33.7875
          ],
          [
            -84.432,
            33.789
          ],
          [
            -84.434,
            33.7905
          ],
          [
            -84.4352,
            33.7922
          ],
          [
            -84.4355,
            33.7935
          ],
          [
            -84.4345,
            33.795
          ],
          [
            -84.4328,
            33.7962
          ],
          [
            -84.4305,
            33.7975
          ],
          [
            -84.428,
            33.7986
          ],
          [
            -84.4252,
            33.7996
          ],
          [
            -84.422,
            33.8005
          ],
          [
            -84.4195,
            33.8016
          ],
          [
            -84.4172,
            33.8028
          ],
          [
            -84.415,
            33.804
          ],
          [
            -84.4126,
            33.8052
          ],
          [
            -84.41,
            33.8065
          ],
          [
            -84.4076,
            33.8076
          ],
          [
            -84.405,
            33.8085
          ],
          [
            -84.4024,
            33.8092
          ],
          [
            -84.3995,
            33.8095
          ],
          [
            -84.3972,
            33.809
          ],
          [
            -84.395,
            33.808
          ],
          [
            -84.3925,
            33.8085
          ],
          [
            -84.39,
            33.8095
          ],
          [
            -84.3872,
            33.8105
          ],
          [
            -84.3845,
            33.8118
          ],
          [
            -84.3818,
            33.813
          ],
          [
            -84.379,
            33.814
          ]
        ]
      }
    },
    {
      "type": "Feature",
      "id": "northeast",
      "properties": {
        "id": "northeast",
        "name": "Northeast Trail",
        "status": "construction",
        "note": "Armour Yards and Lindbergh south through Piedmont Heights and Ansley back to Piedmont Park.",
        "lengthMeters": 5820
      },
      "geometry": {
        "type": "LineString",
        "coordinates": [
          [
            -84.379,
            33.814
          ],
          [
            -84.3765,
            33.8146
          ],
          [
            -84.374,
            33.815
          ],
          [
            -84.3718,
            33.8158
          ],
          [
            -84.37,
            33.8168
          ],
          [
            -84.3686,
            33.818
          ],
          [
            -84.3678,
            33.8195
          ],
          [
            -84.3672,
            33.8215
          ],
          [
            -84.3655,
            33.8212
          ],
          [
            -84.364,
            33.8202
          ],
          [
            -84.363,
            33.8188
          ],
          [
            -84.3625,
            33.817
          ],
          [
            -84.3626,
            33.8152
          ],
          [
            -84.3632,
            33.8135
          ],
          [
            -84.364,
            33.8118
          ],
          [
            -84.3646,
            33.81
          ],
          [
            -84.365,
            33.8082
          ],
          [
            -84.3652,
            33.8065
          ],
          [
            -84.3655,
            33.805
          ],
          [
            -84.366,
            33.8032
          ],
          [
            -84.3665,
            33.8012
          ],
          [
            -84.3672,
            33.7995
          ],
          [
            -84.368,
            33.7975
          ],
          [
            -84.3688,
            33.7958
          ],
          [
            -84.3695,
            33.794
          ],
          [
            -84.3698,
            33.7922
          ],
          [
            -84.37,
            33.7905
          ],
          [
            -84.3702,
            33.7888
          ],
          [
            -84.3704,
            33.7872
          ],
          [
            -84.3705,
            33.7855
          ]
        ]
      }
    }
  ]
}
